NORAD_CAT_ID,OBJECT_NAME,OBJECT_TYPE,EPOCH,MEAN_MOTION,ECCENTRICITY,INCLINATION,RA_OF_ASC_NODE,ARG_OF_PERICENTER,MEAN_ANOMALY,BSTAR,MEAN_MOTION_DOT,MEAN_MOTION_DDOT,TLE_LINE0,TLE_LINE1,TLE_LINE2,SEMIMAJOR_AXIS,PERIOD,APOGEE,PERIGEE,DECAYED
54075.0,STARLINK-5212,PAYLOAD,2023-12-07 11:38:12,15.0884003,0.0001757,53.2182,74.2487,110.4332,249.6849,-0.00015414,-2.74e-05,0.0,0 STARLINK-5212,1 54075U 22136AA  23341.48486847 -.00002740  00000-0 -15414-3 0  9990,2 54075  53.2182  74.2487 0001757 110.4332 249.6849 15.08840030 63123,6917.88,95.438,540.961,538.53,0.0
54075.0,STARLINK-5212,PAYLOAD,2023-12-08 11:28:58,15.08862368,0.000198,53.2192,69.7884,119.8205,240.2984,0.00039779,6.052e-05,0.0,0 STARLINK-5212,1 54075U 22136AA  23342.47845192  .00006052  00000-0  39779-3 0  9990,2 54075  53.2192  69.7884 0001980 119.8205 240.2984 15.08862368 63275,6917.812,95.436,541.047,538.307,0.0
54075.0,STARLINK-5212,PAYLOAD,2023-12-08 13:04:21,15.08863193,0.0001747,53.2185,69.4905,112.0092,248.1086,0.00040327,6.14e-05,0.0,0 STARLINK-5212,1 54075U 22136AA  23342.54469172  .00006140  00000-0  40327-3 0  9997,2 54075  53.2185  69.4905 0001747 112.0092 248.1086 15.08863193 62803,6917.809,95.436,540.883,538.466,0.0
54075.0,STARLINK-5212,PAYLOAD,2023-12-09 11:19:46,15.08835681,0.0001375,53.2162,65.3131,92.6236,267.4914,-0.00016867,-2.971e-05,0.0,0 STARLINK-5212,1 54075U 22136AA  23343.47206171 -.00002971  00000-0 -16867-3 0  9990,2 54075  53.2162  65.3131 0001375  92.6236 267.4914 15.08835681 63428,6917.894,95.438,540.71,538.807,0.0
54075.0,STARLINK-5212,PAYLOAD,2023-12-09 14:30:32,15.08829311,0.0001486,53.2174,64.7285,102.6272,257.4886,-0.00024385,-4.166e-05,0.0,0 STARLINK-5212,1 54075U 22136AA  23343.60454636 -.00004166  00000-0 -24385-3 0  9998,2 54075  53.2174  64.7285 0001486 102.6272 257.4886 15.08829311 62967,6917.913,95.438,540.806,538.75,0.0
54075.0,STARLINK-5212,PAYLOAD,2023-12-10 12:45:57,15.08835165,0.0001392,53.2173,60.571,84.079,276.0361,5.4849e-05,5.85e-06,0.0,0 STARLINK-5212,1 54075U 22136AA  23344.53190982  .00000585  00000-0  54849-4 0  9990,2 54075  53.2173  60.5710 0001392  84.0790 276.0361 15.08835165 63103,6917.895,95.438,540.723,538.797,0.0
54075.0,STARLINK-5212,PAYLOAD,2023-12-11 12:36:44,15.08845426,0.0001472,53.2171,56.1121,76.7441,283.3715,0.00044283,6.768e-05,0.0,0 STARLINK-5212,1 54075U 22136AA  23345.52551393  .00006768  00000-0  44283-3 0  9996,2 54075  53.2171  56.1121 0001472  76.7441 283.3715 15.08845426 63259,6917.864,95.437,540.747,538.71,0.0
54075.0,STARLINK-5212,PAYLOAD,2023-12-12 10:52:08,15.08842685,0.0002025,53.2185,51.9468,61.2068,298.9128,0.00016911,2.404e-05,0.0,0 STARLINK-5212,1 54075U 22136AA  23346.45287707  .00002404  00000-0  16911-3 0  9994,2 54075  53.2185  51.9468 0002025  61.2068 298.9128 15.08842685 63872,6917.872,95.437,541.138,538.336,0.0
54075.0,STARLINK-5212,PAYLOAD,2023-12-13 10:42:55,15.08845772,0.0001611,53.2179,47.4859,77.8405,282.2768,0.00014104,1.958e-05,0.0,0 STARLINK-5212,1 54075U 22136AA  23347.44647347  .00001958  00000-0  14104-3 0  9999,2 54075  53.2179  47.4859 0001611  77.8405 282.2768 15.08845772 63547,6917.863,95.437,540.842,538.613,0.0
54075.0,STARLINK-5212,PAYLOAD,2023-12-14 10:33:42,15.08843535,0.0001658,53.2184,43.0254,92.1501,267.9681,0.00011746,1.582e-05,0.0,0 STARLINK-5212,1 54075U 22136AA  23348.44007342  .00001582  00000-0  11746-3 0  9997,2 54075  53.2184  43.0254 0001658  92.1501 267.9681 15.08843535 64171,6917.87,95.437,540.882,538.588,0.0
54075.0,STARLINK-5212,PAYLOAD,2023-12-14 18:30:38,15.0882385,0.0001613,53.2185,41.5397,89.5361,270.5815,-0.00019026,-3.313e-05,0.0,0 STARLINK-5212,1 54075U 22136AA  23348.77128249 -.00003313  00000-0 -19026-3 0  9998,2 54075  53.2185  41.5397 0001613  89.5361 270.5815 15.08823850 64221,6917.93,95.439,540.911,538.679,0.0
54075.0,STARLINK-5212,PAYLOAD,2023-12-15 10:24:29,15.08833631,0.000159,53.2172,38.5572,75.779,284.3378,-2.0384e-05,-6.12e-06,0.0,0 STARLINK-5212,1 54075U 22136AA  23349.43368052 -.00000612  00000-0 -20384-4 0  9999,2 54075  53.2172  38.5572 0001590  75.7790 284.3378 15.08833631 64321,6917.9,95.438,540.865,538.665,0.0
54075.0,STARLINK-5212,PAYLOAD,2023-12-15 15:10:39,15.08839427,0.00016,53.2173,37.6686,65.3506,294.7653,4.6346e-05,4.5e-06,0.0,0 STARLINK-5212,1 54075U 22136AA  23349.63239828  .00000450  00000-0  46346-4 0  9993,2 54075  53.2173  37.6686 0001600  65.3506 294.7653 15.08839427 63879,6917.882,95.438,540.854,538.64,0.0
54075.0,STARLINK-5212,PAYLOAD,2023-12-16 08:39:54,15.0883635,0.0001507,53.2176,34.4006,83.001,277.1154,8.2689e-05,1.028e-05,0.0,0 STARLINK-5212,1 54075U 22136AA  23350.36104313  .00001028  00000-0  82689-4 0  9997,2 54075  53.2176  34.4006 0001507  83.0010 277.1154 15.08836350 63981,6917.892,95.438,540.799,538.714,0.0
54075.0,STARLINK-5212,PAYLOAD,2023-12-17 10:06:04,15.08838454,0.0001486,53.2177,29.6461,84.2925,275.8237,9.2035e-05,1.177e-05,0.0,0 STARLINK-5212,1 54075U 22136AA  23351.42088681  .00001177  00000-0  92035-4 0  9995,2 54075  53.2177  29.6461 0001486  84.2925 275.8237 15.08838454 64623,6917.885,95.438,540.778,538.722,0.0
54075.0,STARLINK-5212,PAYLOAD,2023-12-18 09:56:50,15.08862473,0.0001586,53.2176,25.1843,78.9718,281.1453,0.0005002,7.686e-05,0.0,0 STARLINK-5212,1 54075U 22136AA  23352.41447553  .00007686  00000-0  50020-3 0  9990,2 54075  53.2176  25.1843 0001586  78.9718 281.1453 15.08862473 64772,6917.812,95.436,540.774,538.58,0.0
54075.0,STARLINK-5212,PAYLOAD,2023-12-19 09:47:38,15.08829849,0.0001355,53.2177,20.724,77.4449,282.6695,0.00013759,1.902e-05,0.0,0 STARLINK-5212,1 54075U 22136AA  23353.40808729  .00001902  00000-0  13759-3 0  9999,2 54075  53.2177  20.7240 0001355  77.4449 282.6695 15.08829849 64925,6917.911,95.438,540.714,538.839,0.0
54075.0,STARLINK-5212,PAYLOAD,2023-12-20 08:03:03,15.08841347,0.0001597,53.218,16.5595,66.3128,293.8032,0.00070761,0.00010992,0.0,0 STARLINK-5212,1 54075U 22136AA  23354.33545561  .00010992  00000-0  70761-3 0  9999,2 54075  53.2180  16.5595 0001597  66.3128 293.8032 15.08841347 64582,6917.876,95.437,540.846,538.636,0.0
54075.0,STARLINK-5212,PAYLOAD,2023-12-21 07:53:49,15.08867192,0.0001452,53.2177,12.0979,78.3761,281.7394,0.00082132,0.00012817,0.0,0 STARLINK-5212,1 54075U 22136AA  23355.32904496  .00012817  00000-0  82132-3 0  9998,2 54075  53.2177  12.0979 0001452  78.3761 281.7394 15.08867192 64731,6917.797,95.436,540.667,538.658,0.0
54075.0,STARLINK-5212,PAYLOAD,2023-12-22 04:33:50,15.08850255,0.000152,53.2179,8.2327,100.3336,259.7827,0.00031755,4.771e-05,0.0,0 STARLINK-5212,1 54075U 22136AA  23356.19016412  .00004771  00000-0  31755-3 0  9991,2 54075  53.2179   8.2327 0001520 100.3336 259.7827 15.08850255 65343,6917.849,95.437,540.766,538.663,0.0
54075.0,STARLINK-5212,PAYLOAD,2023-12-22 06:09:13,15.08849797,0.000161,53.2182,7.9344,107.6631,252.4537,0.00031715,4.764e-05,0.0,0 STARLINK-5212,1 54075U 22136AA  23356.25640352  .00004764  00000-0  31715-3 0  9992,2 54075  53.2182   7.9344 0001610 107.6631 252.4537 15.08849797 64874,6917.85,95.437,540.829,538.602,0.0
54075.0,STARLINK-5212,PAYLOAD,2023-12-23 07:35:23,15.08843857,0.0001654,53.2185,3.1779,96.4424,263.6756,0.00031578,4.742e-05,0.0,0 STARLINK-5212,1 54075U 22136AA  23357.31624751  .00004742  00000-0  31578-3 0  9998,2 54075  53.2185   3.1779 0001654  96.4424 263.6756 15.08843857 65510,6917.869,95.437,540.878,538.589,0.0
54075.0,STARLINK-5212,PAYLOAD,2023-12-24 04:15:24,15.08842008,0.0001487,53.217,359.3075,89.5132,270.603,0.00016503,2.34e-05,0.0,0 STARLINK-5212,1 54075U 22136AA  23358.17736832  .00002340  00000-0  16503-3 0  9990,2 54075  53.2170 359.3075 0001487  89.5132 270.6030 15.08842008 65646,6917.874,95.437,540.768,538.711,0.0
54075.0,STARLINK-5212,PAYLOAD,2023-12-24 07:26:10,15.0884728,0.0001564,53.2177,358.7157,90.6336,269.4835,0.00034641,5.23e-05,0.0,0 STARLINK-5212,1 54075U 22136AA  23358.30984839  .00005230  00000-0  34641-3 0  9991,2 54075  53.2177 358.7157 0001564  90.6336 269.4835 15.08847280 65187,6917.858,95.437,540.805,538.641,0.0
54075.0,STARLINK-5212,PAYLOAD,2023-12-25 04:06:11,15.08838854,0.0001791,53.2183,354.8543,108.011,252.1077,3.3305e-05,2.42e-06,0.0,0 STARLINK-5212,1 54075U 22136AA  23359.17096986  .00000242  00000-0  33305-4 0  9999,2 54075  53.2183 354.8543 0001791 108.0110 252.1077 15.08838854 65797,6917.884,95.438,540.988,538.51,0.0
54075.0,STARLINK-5212,PAYLOAD,2023-12-25 08:52:21,15.08845771,0.000156,53.2178,353.9619,101.7736,258.3431,0.00015622,2.199e-05,0.0,0 STARLINK-5212,1 54075U 22136AA  23359.36968784  .00002199  00000-0  15622-3 0  9998,2 54075  53.2178 353.9619 0001560 101.7736 258.3431 15.08845771 65342,6917.863,95.437,540.807,538.649,0.0
54075.0,STARLINK-5212,PAYLOAD,2023-12-26 08:43:08,15.08844872,0.0001522,53.2173,349.5008,92.4939,267.6227,0.00020852,3.033e-05,0.0,0 STARLINK-5212,1 54075U 22136AA  23360.36329128  .00003033  00000-0  20852-3 0  9992,2 54075  53.2173 349.5008 0001522  92.4939 267.6227 15.08844872 65975,6917.865,95.437,540.783,538.678,0.0
54075.0,STARLINK-5212,PAYLOAD,2023-12-27 03:47:46,15.08842518,0.0001501,53.2177,345.9319,93.1194,266.997,0.00013362,1.839e-05,0.0,0 STARLINK-5212,1 54075U 22136AA  23361.15817392  .00001839  00000-0  13362-3 0  9995,2 54075  53.2177 345.9319 0001501  93.1194 266.9970 15.08842518 66098,6917.873,95.437,540.776,538.699,0.0
54075.0,STARLINK-5212,PAYLOAD,2023-12-27 06:58:32,15.08849729,0.0001739,53.2186,345.3369,80.3583,279.7605,0.00030746,4.61e-05,0.0,0 STARLINK-5212,1 54075U 22136AA  23361.29065234  .00004610  00000-0  30746-3 0  9995,2 54075  53.2186 345.3369 0001739  80.3583 279.7605 15.08849729 65637,6917.851,95.437,540.919,538.513,0.0
54075.0,STARLINK-5212,PAYLOAD,2023-12-27 22:52:24,15.08837963,0.0001577,53.2176,342.3628,94.3569,265.7603,3.8769e-05,3.29e-06,0.0,0 STARLINK-5212,1 54075U 22136AA  23361.95305702  .00000329  00000-0  38769-4 0  9992,2 54075  53.2176 342.3628 0001577  94.3569 265.7603 15.08837963 65731,6917.887,95.438,540.843,538.661,0.0
